STARLINK-2752
1 48692U 21044BG  26061.16668981  .00955884  00000+0  38015-1 0  9996
2 48692  53.1219 110.0790 0001342  85.5033 199.2829 15.22109885  5820
